[{"OBJECT_NAME":"UFO 10 (USA 146)","OBJECT_ID":"1999-063A","EPOCH":"2026-04-03T02:27:00.318528","MEAN_MOTION":1.00267829,"ECCENTRICITY":0.00044268,"INCLINATION":9.8481,"RA_OF_ASC_NODE":27.6043,"ARG_OF_PERICENTER":320.7019,"MEAN_ANOMALY":216.8611,"EPHEMERIS_TYPE":0,"CLASSIFICATION_TYPE":"U","NORAD_CAT_ID":25967,"ELEMENT_SET_NO":999,"REV_AT_EPOCH":9659,"BSTAR":0,"MEAN_MOTION_DOT":-1.91e-6,"MEAN_MOTION_DDOT":0},{"OBJECT_NAME":"ASIASTAR","OBJECT_ID":"2000-016A","EPOCH":"2026-04-03T20:10:19.980192","MEAN_MOTION":1.00272166,"ECCENTRICITY":0.00050661,"INCLINATION":8.9591,"RA_OF_ASC_NODE":58.9372,"ARG_OF_PERICENTER":324.0485,"MEAN_ANOMALY":216.7843,"EPHEMERIS_TYPE":0,"CLASSIFICATION_TYPE":"U","NORAD_CAT_ID":26107,"ELEMENT_SET_NO":999,"REV_AT_EPOCH":9517,"BSTAR":0,"MEAN_MOTION_DOT":-3.32e-6,"MEAN_MOTION_DDOT":0},{"OBJECT_NAME":"USA 149 (DSP 20)","OBJECT_ID":"2000-024A","EPOCH":"2026-04-03T12:02:27.985920","MEAN_MOTION":1.00267317,"ECCENTRICITY":0.0001653,"INCLINATION":13.1156,"RA_OF_ASC_NODE":12.3798,"ARG_OF_PERICENTER":347.5526,"MEAN_ANOMALY":207.2739,"EPHEMERIS_TYPE":0,"CLASSIFICATION_TYPE":"U","NORAD_CAT_ID":26356,"ELEMENT_SET_NO":999,"REV_AT_EPOCH":3216,"BSTAR":0,"MEAN_MOTION_DOT":9.3e-7,"MEAN_MOTION_DDOT":0},{"OBJECT_NAME":"TDRS 8","OBJECT_ID":"2000-034A","EPOCH":"2026-04-03T20:47:02.296320","MEAN_MOTION":1.0027069,"ECCENTRICITY":0.00058492,"INCLINATION":12.5682,"RA_OF_ASC_NODE":31.9431,"ARG_OF_PERICENTER":329.715,"MEAN_ANOMALY":227.1695,"EPHEMERIS_TYPE":0,"CLASSIFICATION_TYPE":"U","NORAD_CAT_ID":26388,"ELEMENT_SET_NO":999,"REV_AT_EPOCH":9443,"BSTAR":0,"MEAN_MOTION_DOT":-1.95e-6,"MEAN_MOTION_DDOT":0},{"OBJECT_NAME":"NSS-11","OBJECT_ID":"2000-059A","EPOCH":"2026-04-04T03:21:18.690624","MEAN_MOTION":1.00273314,"ECCENTRICITY":0.00031387,"INCLINATION":1.9356,"RA_OF_ASC_NODE":82.2517,"ARG_OF_PERICENTER":294.6691,"MEAN_ANOMALY":41.8642,"EPHEMERIS_TYPE":0,"CLASSIFICATION_TYPE":"U","NORAD_CAT_ID":26554,"ELEMENT_SET_NO":999,"REV_AT_EPOCH":4054,"BSTAR":0,"MEAN_MOTION_DOT":2.5e-7,"MEAN_MOTION_DDOT":0},{"OBJECT_NAME":"USA 153","OBJECT_ID":"2000-065A","EPOCH":"2026-04-04T04:52:09.977664","MEAN_MOTION":1.00274648,"ECCENTRICITY":0.00035092,"INCLINATION":11.4995,"RA_OF_ASC_NODE":36.0242,"ARG_OF_PERICENTER":19.5954,"MEAN_ANOMALY":344.4449,"EPHEMERIS_TYPE":0,"CLASSIFICATION_TYPE":"U","NORAD_CAT_ID":26575,"ELEMENT_SET_NO":999,"REV_AT_EPOCH":3219,"BSTAR":0,"MEAN_MOTION_DOT":-3.22e-6,"MEAN_MOTION_DDOT":0},{"OBJECT_NAME":"AMC-6","OBJECT_ID":"2000-067A","EPOCH":"2026-04-04T05:50:07.556928","MEAN_MOTION":1.00273642,"ECCENTRICITY":0.00037226,"INCLINATION":0.0616,"RA_OF_ASC_NODE":57.1778,"ARG_OF_PERICENTER":331.2414,"MEAN_ANOMALY":116.6176,"EPHEMERIS_TYPE":0,"CLASSIFICATION_TYPE":"U","NORAD_CAT_ID":26580,"ELEMENT_SET_NO":999,"REV_AT_EPOCH":9315,"BSTAR":0,"MEAN_MOTION_DOT":8.8e-7,"MEAN_MOTION_DDOT":0},{"OBJECT_NAME":"USA 157 (MILSTAR-2 2)","OBJECT_ID":"2001-009A","EPOCH":"2026-04-03T13:03:54.941760","MEAN_MOTION":1.00267349,"ECCENTRICITY":0.00374384,"INCLINATION":11.4621,"RA_OF_ASC_NODE":20.2192,"ARG_OF_PERICENTER":182.0119,"MEAN_ANOMALY":35.6537,"EPHEMERIS_TYPE":0,"CLASSIFICATION_TYPE":"U","NORAD_CAT_ID":26715,"ELEMENT_SET_NO":999,"REV_AT_EPOCH":3219,"BSTAR":0,"MEAN_MOTION_DOT":1.08e-6,"MEAN_MOTION_DDOT":0},{"OBJECT_NAME":"USA 159 (DSP 21)","OBJECT_ID":"2001-033A","EPOCH":"2026-04-03T12:03:12.913920","MEAN_MOTION":0.99201549,"ECCENTRICITY":3.24e-5,"INCLINATION":12.7119,"RA_OF_ASC_NODE":16.9389,"ARG_OF_PERICENTER":342.7368,"MEAN_ANOMALY":210.2398,"EPHEMERIS_TYPE":0,"CLASSIFICATION_TYPE":"U","NORAD_CAT_ID":26880,"ELEMENT_SET_NO":999,"REV_AT_EPOCH":3221,"BSTAR":0,"MEAN_MOTION_DOT":-4.7e-7,"MEAN_MOTION_DDOT":0},{"OBJECT_NAME":"INTELSAT 902 (IS-902)","OBJECT_ID":"2001-039A","EPOCH":"2026-04-04T05:42:12.676608","MEAN_MOTION":1.00271898,"ECCENTRICITY":0.00044864,"INCLINATION":5.9315,"RA_OF_ASC_NODE":72.6706,"ARG_OF_PERICENTER":298.7599,"MEAN_ANOMALY":216.5883,"EPHEMERIS_TYPE":0,"CLASSIFICATION_TYPE":"U","NORAD_CAT_ID":26900,"ELEMENT_SET_NO":999,"REV_AT_EPOCH":8995,"BSTAR":0,"MEAN_MOTION_DOT":-2.81e-6,"MEAN_MOTION_DDOT":0},{"OBJECT_NAME":"USA 164 (MILSTAR-2 3)","OBJECT_ID":"2002-001A","EPOCH":"2026-04-04T00:40:38.819712","MEAN_MOTION":1.00271162,"ECCENTRICITY":0.00998811,"INCLINATION":11.0914,"RA_OF_ASC_NODE":22.3517,"ARG_OF_PERICENTER":5.1022,"MEAN_ANOMALY":193.9816,"EPHEMERIS_TYPE":0,"CLASSIFICATION_TYPE":"U","NORAD_CAT_ID":27168,"ELEMENT_SET_NO":999,"REV_AT_EPOCH":3221,"BSTAR":0,"MEAN_MOTION_DOT":9.7e-7,"MEAN_MOTION_DDOT":0},{"OBJECT_NAME":"INTELSAT 904 (IS-904)","OBJECT_ID":"2002-007A","EPOCH":"2026-04-04T05:19:38.595936","MEAN_MOTION":1.00273023,"ECCENTRICITY":0.00075098,"INCLINATION":6.7365,"RA_OF_ASC_NODE":70.0593,"ARG_OF_PERICENTER":326.3781,"MEAN_ANOMALY":204.5411,"EPHEMERIS_TYPE":0,"CLASSIFICATION_TYPE":"U","NORAD_CAT_ID":27380,"ELEMENT_SET_NO":999,"REV_AT_EPOCH":5102,"BSTAR":0,"MEAN_MOTION_DOT":-2.23e-6,"MEAN_MOTION_DDOT":0},{"OBJECT_NAME":"DIRECTV 5 (TEMPO 1)","OBJECT_ID":"2002-023A","EPOCH":"2026-04-04T01:59:41.518752","MEAN_MOTION":1.00272799,"ECCENTRICITY":0.00037829,"INCLINATION":4.6893,"RA_OF_ASC_NODE":76.2183,"ARG_OF_PERICENTER":309.0319,"MEAN_ANOMALY":86.9757,"EPHEMERIS_TYPE":0,"CLASSIFICATION_TYPE":"U","NORAD_CAT_ID":27426,"ELEMENT_SET_NO":999,"REV_AT_EPOCH":8738,"BSTAR":0,"MEAN_MOTION_DOT":-5.6e-7,"MEAN_MOTION_DDOT":0},{"OBJECT_NAME":"INTELSAT 905 (IS-905)","OBJECT_ID":"2002-027A","EPOCH":"2026-04-03T01:54:25.943616","MEAN_MOTION":1.00273159,"ECCENTRICITY":0.00032672,"INCLINATION":6.5662,"RA_OF_ASC_NODE":70.6915,"ARG_OF_PERICENTER":315.6989,"MEAN_ANOMALY":56.4288,"EPHEMERIS_TYPE":0,"CLASSIFICATION_TYPE":"U","NORAD_CAT_ID":27438,"ELEMENT_SET_NO":999,"REV_AT_EPOCH":5061,"BSTAR":0,"MEAN_MOTION_DOT":9.4e-7,"MEAN_MOTION_DDOT":0},{"OBJECT_NAME":"GALAXY 3C (G-3C)","OBJECT_ID":"2002-030A","EPOCH":"2026-04-04T02:04:03.600192","MEAN_MOTION":1.00271706,"ECCENTRICITY":0.00015853,"INCLINATION":3.5396,"RA_OF_ASC_NODE":78.9965,"ARG_OF_PERICENTER":20.051,"MEAN_ANOMALY":29.5147,"EPHEMERIS_TYPE":0,"CLASSIFICATION_TYPE":"U","NORAD_CAT_ID":27445,"ELEMENT_SET_NO":999,"REV_AT_EPOCH":4575,"BSTAR":0,"MEAN_MOTION_DOT":-1.52e-6,"MEAN_MOTION_DDOT":0},{"OBJECT_NAME":"INTELSAT 906 (IS-906)","OBJECT_ID":"2002-041A","EPOCH":"2026-04-04T01:06:39.106944","MEAN_MOTION":1.00272042,"ECCENTRICITY":0.00033369,"INCLINATION":5.6153,"RA_OF_ASC_NODE":73.8182,"ARG_OF_PERICENTER":309.3798,"MEAN_ANOMALY":249.9777,"EPHEMERIS_TYPE":0,"CLASSIFICATION_TYPE":"U","NORAD_CAT_ID":27513,"ELEMENT_SET_NO":999,"REV_AT_EPOCH":8628,"BSTAR":0,"MEAN_MOTION_DOT":1.4e-7,"MEAN_MOTION_DDOT":0},{"OBJECT_NAME":"NIMIQ 2","OBJECT_ID":"2002-062A","EPOCH":"2026-04-04T05:16:53.802624","MEAN_MOTION":1.00272644,"ECCENTRICITY":0.00066056,"INCLINATION":9.2765,"RA_OF_ASC_NODE":57.6623,"ARG_OF_PERICENTER":318.0513,"MEAN_ANOMALY":146.8571,"EPHEMERIS_TYPE":0,"CLASSIFICATION_TYPE":"U","NORAD_CAT_ID":27632,"ELEMENT_SET_NO":999,"REV_AT_EPOCH":4344,"BSTAR":0,"MEAN_MOTION_DOT":-6.7e-7,"MEAN_MOTION_DDOT":0}]
